[{"OBJECT_NAME":"LYNK TOWER 5","OBJECT_ID":"2024-043Z","EPOCH":"2026-03-09T22:11:51.175104","MEAN_MOTION":15.29454506,"ECCENTRICITY":0.00104056,"INCLINATION":97.5458,"RA_OF_ASC_NODE":204.7305,"ARG_OF_PERICENTER":234.6422,"MEAN_ANOMALY":125.3846,"EPHEMERIS_TYPE":0,"CLASSIFICATION_TYPE":"U","NORAD_CAT_ID":59121,"ELEMENT_SET_NO":999,"REV_AT_EPOCH":11186,"BSTAR":0.00031901545,"MEAN_MOTION_DOT":9.048e-5,"MEAN_MOTION_DDOT":0},{"OBJECT_NAME":"STARLINK-32141","OBJECT_ID":"2024-132N","EPOCH":"2026-03-09T23:14:19.595904","MEAN_MOTION":15.30192229,"ECCENTRICITY":0.00012497,"INCLINATION":53.1609,"RA_OF_ASC_NODE":51.0931,"ARG_OF_PERICENTER":89.1535,"MEAN_ANOMALY":270.9609,"EPHEMERIS_TYPE":0,"CLASSIFICATION_TYPE":"U","NORAD_CAT_ID":60290,"ELEMENT_SET_NO":999,"REV_AT_EPOCH":9160,"BSTAR":4.4243518e-5,"MEAN_MOTION_DOT":9.51e-6,"MEAN_MOTION_DDOT":0}]
